NORAD_CAT_ID,OBJECT_NAME,OBJECT_TYPE,EPOCH,MEAN_MOTION,ECCENTRICITY,INCLINATION,RA_OF_ASC_NODE,ARG_OF_PERICENTER,MEAN_ANOMALY,BSTAR,MEAN_MOTION_DOT,MEAN_MOTION_DDOT,TLE_LINE0,TLE_LINE1,TLE_LINE2,SEMIMAJOR_AXIS,PERIOD,APOGEE,PERIGEE,DECAYED
52882.0,STARLINK-4181,PAYLOAD,2022-08-22 22:00:00,15.73237933,0.0003276,53.2145,76.2754,10.2577,291.0738,-0.00033887,-0.00048003,0.0,0 STARLINK-4181,1 52882U 22062BE  22234.91667824 -.00048003  00000-0 -33887-3 0  9992,2 52882  53.2145  76.2754 0003276  10.2577 291.0738 15.73237933  1305,6727.7869999999975,91.531,351.856,347.4480000000001,0.0
52882.0,STARLINK-4181,PAYLOAD,2022-08-23 14:00:01,15.73244926,0.0003128,53.2148,72.9741,12.7409,106.4675,-0.00050164,-0.00070593,0.0,0 STARLINK-4181,1 52882U 22062BE  22235.58334491 -.00070593  00000-0 -50164-3 0  9993,2 52882  53.2148  72.9741 0003128  12.7409 106.4675 15.73244926 11056,6727.767,91.531,351.737,347.528,0.0
52882.0,STARLINK-4181,PAYLOAD,2022-08-23 22:00:01,15.73163743,0.0003487,53.2149,71.3265,14.3188,193.914,0.00035962,0.00050084,0.0,0 STARLINK-4181,1 52882U 22062BE  22235.91668981  .00050084  00000-0  35962-3 0  9994,2 52882  53.2149  71.3265 0003487  14.3188 193.9140 15.73163743  1303,6727.999,91.535,352.21,347.517,0.0
52882.0,STARLINK-4181,PAYLOAD,2022-08-24 06:00:00,15.73212283,0.0003339,53.2145,69.6755,14.3235,282.7525,1.3665e-05,1.296e-05,0.0,0 STARLINK-4181,1 52882U 22062BE  22236.25001157  .00001296  00000-0  13665-4 0  9996,2 52882  53.2145  69.6755 0003339  14.3235 282.7525 15.73212283 11165,6727.86,91.532,351.972,347.47900000000016,0.0
52882.0,STARLINK-4181,PAYLOAD,2022-08-24 14:00:01,15.73256147,0.0003248,53.2145,68.0256,14.4868,11.5234,-0.00031692,-0.00044984,0.0,0 STARLINK-4181,1 52882U 22062BE  22236.58334491 -.00044984  00000-0 -31692-3 0  9994,2 52882  53.2145  68.0256 0003248  14.4868  11.5234 15.73256147  1303,6727.735,91.53,351.785,347.415,0.0
52882.0,STARLINK-4181,PAYLOAD,2022-08-24 22:00:00,15.73175941,0.0003473,53.2142,66.3779,11.2771,103.7133,0.00031292,0.00043488,0.0,0 STARLINK-4181,1 52882U 22062BE  22236.91667824  .00043488  00000-0  31292-3 0  9992,2 52882  53.2142  66.3779 0003473  11.2771 103.7133 15.73175941  1303,6727.964,91.535,352.165,347.492,0.0
52882.0,STARLINK-4181,PAYLOAD,2022-08-25 06:00:02,15.73209913,0.0003347,53.2142,64.7265,11.3475,192.6199,2.6136e-05,3.048e-05,0.0,0 STARLINK-4181,1 52882U 22062BE  22237.25002315  .00003048  00000-0  26136-4 0  9998,2 52882  53.2142  64.7265 0003347  11.3475 192.6199 15.73209913 11315,6727.8669999999975,91.533,351.9840000000001,347.48,0.0
52882.0,STARLINK-4181,PAYLOAD,2022-08-25 14:00:01,15.73250091,0.0003259,53.2145,63.0766,11.8118,281.016,-0.00033506,-0.00047498,0.0,0 STARLINK-4181,1 52882U 22062BE  22237.58334491 -.00047498  00000-0 -33506-3 0  9994,2 52882  53.2145  63.0766 0003259  11.8118 281.0160 15.73250091  1309,6727.752,91.53,351.81,347.425,0.0
52882.0,STARLINK-4181,PAYLOAD,2022-08-25 22:00:00,15.73204149,0.0003337,53.2176,61.4236,14.302,7.447999999999999,2.1483000000000003e-06,-3.22e-06,0.0,0 STARLINK-4181,1 52882U 22062BE  22237.91667824 -.00000322  00000-0  21483-5 0  9997,2 52882  53.2176  61.4236 0003337  14.3020   7.4480 15.73204149 11426,6727.8830000000025,91.533,351.99300000000005,347.50300000000016,0.0
52882.0,STARLINK-4181,PAYLOAD,2022-08-26 06:00:00,15.73207945,0.000344,53.2143,59.7773,9.0234,101.7313,0.00013899,0.00018939,0.0,0 STARLINK-4181,1 52882U 22062BE  22238.25001157  .00018939  00000-0  13899-3 0  9998,2 52882  53.2143  59.7773 0003440   9.0234 101.7313 15.73207945 11474,6727.873000000001,91.533,352.052,347.423,0.0
52882.0,STARLINK-4181,PAYLOAD,2022-08-26 14:00:01,15.73252141,0.000343,53.2143,58.1278,12.999,186.7526,-0.00067888,-0.00095079,0.0,0 STARLINK-4181,1 52882U 22062BE  22238.58335648 -.00095079  00000-0 -67888-3 0  9998,2 52882  53.2143  58.1278 0003430  12.9990 186.7526 15.73252141  1306,6727.746999999999,91.53,351.9190000000001,347.30400000000014,0.0
52882.0,STARLINK-4181,PAYLOAD,2022-08-26 20:00:01,15.73181879,0.0003731999999999,53.214,56.892,13.937,162.4992,0.00026352,0.00036504,0.0,0 STARLINK-4181,1 52882U 22062BE  22238.83334491  .00036504  00000-0  26352-3 0  9998,2 52882  53.2140  56.8920 0003732  13.9370 162.4992 15.73181879 11566,6727.946999999999,91.534,352.3230000000001,347.301,0.0
52882.0,STARLINK-4181,PAYLOAD,2022-08-26 22:00:00,15.73171503,0.000377,53.214,56.4799,13.7936,274.8754,0.00052435,0.00073546,0.0,0 STARLINK-4181,1 52882U 22062BE  22238.91667824  .00073546  00000-0  52435-3 0  9994,2 52882  53.2140  56.4799 0003770  13.7936 274.8754 15.73171503  1302,6727.976,91.535,352.37800000000016,347.305,0.0
52882.0,STARLINK-4181,PAYLOAD,2022-08-27 14:00:01,15.73276224,0.0003621999999999,53.2154,53.1762,14.6825,91.8385,-0.0013912,-0.0019219999999999,0.0,0 STARLINK-4181,1 52882U 22062BE  22239.58334491 -.00192200  00000-0 -13912-2 0  9996,2 52882  53.2154  53.1762 0003622  14.6825  91.8385 15.73276224  1307,6727.678000000001,91.529,351.98,347.106,0.0
52882.0,STARLINK-4181,PAYLOAD,2022-08-27 22:00:00,15.73159444,0.0003927,53.2144,51.5307,10.3667,185.1059,0.00063558,0.00089405,0.0,0 STARLINK-4181,1 52882U 22062BE  22239.91667824  .00089405  00000-0  63558-3 0  9994,2 52882  53.2144  51.5307 0003927  10.3667 185.1059 15.73159444  1307,6728.011,91.536,352.51800000000014,347.2340000000001,0.0
52882.0,STARLINK-4181,PAYLOAD,2022-08-28 14:00:01,15.73270889,0.000364,53.2148,48.2295,9.0962,4.2674,-0.00053997,-0.00075986,0.0,0 STARLINK-4181,1 52882U 22062BE  22240.58334491 -.00075986  00000-0 -53997-3 0  9997,2 52882  53.2148  48.2295 0003640   9.0962   4.2674 15.73270889  1306,6727.693,91.529,352.00699999999995,347.1090000000001,0.0
52882.0,STARLINK-4181,PAYLOAD,2022-08-28 22:00:00,15.73325036,0.0003703999999999,53.2156,46.582,6.7574,95.5653,-0.0052629,-0.00686189,0.0,0 STARLINK-4181,1 52882U 22062BE  22240.91667824 -.00686189  00000-0 -52629-2 0  9996,2 52882  53.2156  46.5820 0003704   6.7574  95.5653 15.73325036  1309,6727.5390000000025,91.526,351.896,346.912,0.0
52882.0,STARLINK-4181,PAYLOAD,2022-08-29 06:00:02,15.73105895,0.0003552,53.2174,44.9316,4.9401,186.1489,-0.0078998,-0.01000325,0.0,0 STARLINK-4181,1 52882U 22062BE  22241.25002315 -.01000325  00000-0 -78998-2 0  9992,2 52882  53.2174  44.9316 0003552   4.9401 186.1489 15.73105895 11945,6728.163000000001,91.539,352.418,347.639,0.0
52882.0,STARLINK-4181,PAYLOAD,2022-08-29 14:00:01,15.72384576,0.000357,53.2176,43.2867,3.8208,275.5793,-0.0086575,-0.01056582,0.0,0 STARLINK-4181,1 52882U 22062BE  22241.58334491 -.01056582  00000-0 -86575-2 0  9997,2 52882  53.2176  43.2867 0003570   3.8208 275.5793 15.72384576  1307,6730.221,91.581,354.48900000000015,349.68300000000005,0.0
52882.0,STARLINK-4181,PAYLOAD,2022-08-29 22:00:00,15.71622151,0.0003728999999999,53.2174,41.6454,1.0906,5.7888,-0.0088912,-0.01050996,0.0,0 STARLINK-4181,1 52882U 22062BE  22241.91667824 -.01050996  00000-0 -88912-2 0  9993,2 52882  53.2174  41.6454 0003729   1.0906   5.7888 15.71622151 12055,6732.397,91.625,356.773,351.75199999999984,0.0
52882.0,STARLINK-4181,PAYLOAD,2022-08-30 14:00:01,15.70152896,0.0002959,53.2174,38.3625,273.8467,265.2289,-0.010115,-0.0111546,0.0,0 STARLINK-4181,1 52882U 22062BE  22242.58334491 -.01115460  00000-0 -10115-1 0  9995,2 52882  53.2174  38.3625 0002959 273.8467 265.2289 15.70152896  1300,6736.597,91.711,360.455,356.468,0.0
52882.0,STARLINK-4181,PAYLOAD,2022-08-30 22:00:00,15.69439326,7.36e-05,53.2168,36.7272,327.3915,296.3954,-0.010916,-0.01181113,0.0,0 STARLINK-4181,1 52882U 22062BE  22242.91667824 -.01181113  00000-0 -10916-1 0  9998,2 52882  53.2168  36.7272 0000736 327.3915 296.3954 15.69439326 12217,6738.638000000001,91.753,360.999,360.00699999999995,0.0
52882.0,STARLINK-4181,PAYLOAD,2022-08-31 14:00:01,15.67826245,0.0001258,53.2175,33.4589,52.6028,17.9827,-0.010445,-0.01051852,0.0,0 STARLINK-4181,1 52882U 22062BE  22243.58334491 -.01051852  00000-0 -10445-1 0  9996,2 52882  53.2175  33.4589 0001258  52.6028  17.9827 15.67826245 12318,6743.26,91.847,365.973,364.276,0.0
52882.0,STARLINK-4181,PAYLOAD,2022-08-31 22:00:00,15.6706467,0.000122,53.2173,31.8284,65.83,86.7587,-0.010729,-0.01047652,0.0,0 STARLINK-4181,1 52882U 22062BE  22243.91667824 -.01047652  00000-0 -10729-1 0  9990,2 52882  53.2173  31.8284 0001220  65.8300  86.7587 15.67064670  1308,6745.444,91.892,368.132,366.486,0.0
52882.0,STARLINK-4181,PAYLOAD,2022-09-01 14:00:01,15.65578779,0.0001074,53.2175,28.5676,72.955,240.9526,-0.011918,-0.01107948,0.0,0 STARLINK-4181,1 52882U 22062BE  22244.58335648 -.01107948  00000-0 -11918-1 0  9996,2 52882  53.2175  28.5676 0001074  72.9550 240.9526 15.65578779  1306,6749.712,91.979,372.302,370.852,0.0
52882.0,STARLINK-4181,PAYLOAD,2022-09-01 22:00:00,15.64788054,0.0001094,53.2171,26.9447,60.1296,332.9919,-0.011787,-0.01049311,0.0,0 STARLINK-4181,1 52882U 22062BE  22244.91667824 -.01049311  00000-0 -11787-1 0  9990,2 52882  53.2171  26.9447 0001094  60.1296 332.9919 15.64788054  1304,6751.985,92.025,374.589,373.112,0.0
52882.0,STARLINK-4181,PAYLOAD,2022-09-02 14:00:01,15.63343311,0.0001356,53.2172,23.6957,67.7836,121.0918,-0.013709,-0.01160088,0.0,0 STARLINK-4181,1 52882U 22062BE  22245.58334491 -.01160088  00000-0 -13709-1 0  9996,2 52882  53.2172  23.6957 0001356  67.7836 121.0918 15.63343311  1307,6756.145,92.11,378.926,377.093,0.0
52882.0,STARLINK-4181,PAYLOAD,2022-09-02 22:00:01,15.62509724,0.0001155999999999,53.2171,22.0777,71.13600000000002,194.3703,-0.012901,-0.01065448,0.0,0 STARLINK-4181,1 52882U 22062BE  22245.91668981 -.01065448  00000-0 -12901-1 0  9994,2 52882  53.2171  22.0777 0001156  71.1360 194.3703 15.62509724  1304,6758.547,92.159,381.194,379.631,0.0
52882.0,STARLINK-4181,PAYLOAD,2022-09-03 00:00:00,15.62338915,0.0001199999999999,53.2168,21.6714,45.713,328.7095,-0.013349,-0.01092411,0.0,0 STARLINK-4181,1 52882U 22062BE  22246.00001157 -.01092411  00000-0 -13349-1 0  9998,2 52882  53.2168  21.6714 0001200  45.7130 328.7095 15.62338915 12691,6759.04,92.17,381.716,380.094,0.0
